{"fetched_at":"2026-03-29T16:36:15Z","count":15609,"tles":[{"name":"STARLINK-31580","line1":"1 59434U 24065P   26087.70794721  .00000829  00000+0  40110-4 0  9990","line2":"2 59434  53.1606 195.2941 0001291  81.7729 278.3418 15.30198601111815","category":"Starlink"}]}