{
  "norad_id": 59434,
  "name": "STARLINK-31580",
  "history": [
    {
      "epoch": "2026-03-28T16:59:26.638944",
      "apogee_km": 476.1040148757693,
      "perigee_km": 474.3344782929007,
      "latitude_deg": 14.604354164205608,
      "longitude_deg": -168.63706784020178,
      "semi_major_axis_km": 6853.356246584334,
      "eccentricity": 0.0001291,
      "inclination_deg": 53.1606,
      "raan_deg": 195.2941,
      "arg_perigee_deg": 81.7729,
      "mean_anomaly_deg": 278.3418,
      "mean_motion_rev_day": 15.30198601
    }
  ]
}